[{"id":1,"street":"97829 Pawling Avenue","city":"Az̧ Z̧alī‘ah"},
{"id":2,"street":"93554 Aberg Pass","city":"Şalākhid"},
{"id":3,"street":"63 Warner Circle","city":"Beauvais","state":"Picardie","zip_code":"60022 CEDEX"},
{"id":4,"street":"775 Merrick Court","city":"Sambogunung"},
{"id":5,"street":"3 Burrows Way","city":"Tacheng"},
{"id":6,"street":"335 Troy Crossing","city":"Xinfeng"},
{"id":7,"street":"54175 Blue Bill Park Alley","city":"An Naşr"},
{"id":8,"street":"2 Myrtle Street","city":"Aurora","state":"Colorado","zip_code":"80045"},
{"id":9,"street":"6 Reinke Pass","city":"Pszczyna","zip_code":"43-200"},
{"id":10,"street":"98585 Maple Center","city":"Wolometang"},
{"id":11,"street":"2877 Sutherland Place","city":"Yermish’","zip_code":"391660"},
{"id":12,"street":"6171 Lerdahl Street","city":"Putrajaya","state":"Putrajaya","zip_code":"62606"},
{"id":13,"street":"7588 Ruskin Court","city":"Kaem"},
{"id":14,"street":"44921 Fair Oaks Hill","city":"Sardasht"},
{"id":15,"street":"75194 Mayer Trail","city":"Peshtera","zip_code":"4550"},
{"id":16,"street":"2876 Colorado Alley","city":"Kalino","zip_code":"618245"},
{"id":17,"street":"97 Porter Junction","city":"Tonglin"},
{"id":18,"street":"97406 Hollow Ridge Hill","city":"Uchaly","zip_code":"665133"},
{"id":19,"street":"4827 Buell Terrace","city":"'s-Hertogenbosch","state":"Provincie Noord-Brabant","zip_code":"5204"},
{"id":20,"street":"3007 Valley Edge Terrace","city":"Lees Summit","state":"Missouri","zip_code":"64082"},
{"id":21,"street":"10 Raven Crossing","city":"Carleton Place","state":"Ontario","zip_code":"K7C"},
{"id":22,"street":"172 Knutson Circle","city":"Tobias Fornier","zip_code":"5716"},
{"id":23,"street":"2 Merrick Avenue","city":"Ribas do Rio Pardo","zip_code":"79180-000"},
{"id":24,"street":"37961 Blaine Crossing","city":"Fonadhoo"},
{"id":25,"street":"4 Transport Drive","city":"Chvalšiny","zip_code":"382 08"},
{"id":26,"street":"1879 Eastwood Road","city":"Khovd"},
{"id":27,"street":"60 Hagan Junction","city":"Indaial","zip_code":"89130-000"},
{"id":28,"street":"451 Twin Pines Court","city":"Itatinga","zip_code":"18690-000"},
{"id":29,"street":"0462 Dapin Point","city":"Lindavista","state":"Chiapas","zip_code":"29557"},
{"id":30,"street":"41743 Messerschmidt Point","city":"Sulop","zip_code":"8009"},
{"id":31,"street":"256 Nancy Point","city":"Olonets","zip_code":"186000"},
{"id":32,"street":"9 Gulseth Avenue","city":"Starodub","zip_code":"243240"},
{"id":33,"street":"0 Susan Terrace","city":"Rrasa e Sipërme"},
{"id":34,"street":"930 Forest Run Hill","city":"Ogden","state":"Utah","zip_code":"84409"},
{"id":35,"street":"4 Bonner Crossing","city":"Krajan"},
{"id":36,"street":"489 Roxbury Hill","city":"Heicheng"},
{"id":37,"street":"4 Montana Pass","city":"Machakos"},
{"id":38,"street":"2188 Acker Hill","city":"Saint-Denis","state":"Réunion","zip_code":"97471 CEDEX"},
{"id":39,"street":"05342 Rusk Road","city":"Capacho Viejo"},
{"id":40,"street":"56 Blue Bill Park Court","city":"Divnomorskoye","zip_code":"353490"},
{"id":41,"street":"8 Pleasure Pass","city":"Capulaan","zip_code":"5516"},
{"id":42,"street":"5705 1st Circle","city":"Caratinga","zip_code":"35300-000"},
{"id":43,"street":"9674 Kenwood Center","city":"Batatais","zip_code":"14300-000"},
{"id":44,"street":"52807 Claremont Road","city":"Feteira Grande","state":"Ilha de São Miguel","zip_code":"9630-305"},
{"id":45,"street":"17637 Schurz Circle","city":"Labo","zip_code":"4604"},
{"id":46,"street":"72202 Stone Corner Lane","city":"Turbaco","zip_code":"131008"},
{"id":47,"street":"47382 7th Circle","city":"Lampuyang"},
{"id":48,"street":"7 Kipling Park","city":"Cigaluh"},
{"id":49,"street":"78117 Arkansas Park","city":"Semarapura"},
{"id":50,"street":"66 Pawling Parkway","city":"Changhao"},
{"id":51,"street":"8 Oakridge Lane","city":"Citundun"},
{"id":52,"street":"4 Novick Hill","city":"Oesao"},
{"id":53,"street":"68502 Grim Place","city":"Ritaebang"},
{"id":54,"street":"647 Bunker Hill Court","city":"Krajan Satu"},
{"id":55,"street":"728 Elka Center","city":"Nizhnekamsk","zip_code":"423579"},
{"id":56,"street":"11589 Warrior Circle","city":"Söderhamn","state":"Gävleborg","zip_code":"826 70"},
{"id":57,"street":"6 Grayhawk Center","city":"Zákupy","zip_code":"471 23"},
{"id":58,"street":"9451 Golf Course Way","city":"Bedayu"},
{"id":59,"street":"85620 Kropf Plaza","city":"Barinitas"},
{"id":60,"street":"75622 Comanche Hill","city":"Pantijan No 2","zip_code":"4133"},
{"id":61,"street":"651 Mosinee Way","city":"Tarnowskie Góry","zip_code":"42-680"},
{"id":62,"street":"3058 Messerschmidt Park","city":"Changsheng"},
{"id":63,"street":"863 Lakewood Gardens Terrace","city":"Kourou","state":"Guyane","zip_code":"97374 CEDEX"},
{"id":64,"street":"42 Straubel Hill","city":"Quito"},
{"id":65,"street":"16 8th Place","city":"Gandoang"},
{"id":66,"street":"9512 Hansons Place","city":"Pyu"},
{"id":67,"street":"636 Autumn Leaf Center","city":"Feitoria","state":"Porto","zip_code":"4650-291"},
{"id":68,"street":"60191 Florence Hill","city":"Oguta"},
{"id":69,"street":"9 Basil Park","city":"Stockholm","state":"Stockholm","zip_code":"141 99"},
{"id":70,"street":"9 Calypso Alley","city":"Xiaochuan"},
{"id":71,"street":"1099 Loeprich Trail","city":"Dongjia"},
{"id":72,"street":"79497 David Lane","city":"Xinning"},
{"id":73,"street":"71 Loeprich Crossing","city":"Nejo"},
{"id":74,"street":"30 Duke Center","city":"Boneng"},
{"id":75,"street":"80 Clove Pass","city":"Kobleve"},
{"id":76,"street":"543 6th Street","city":"Jackson","state":"Mississippi","zip_code":"39236"},
{"id":77,"street":"3490 Roxbury Court","city":"Xintian"},
{"id":78,"street":"523 Laurel Circle","city":"Gushui"},
{"id":79,"street":"81 Bobwhite Hill","city":"Makata"},
{"id":80,"street":"5 Golden Leaf Way","city":"Gondifelos","state":"Braga","zip_code":"4760-490"},
{"id":81,"street":"878 Roxbury Circle","city":"Nacka","state":"Stockholm","zip_code":"131 22"},
{"id":82,"street":"29718 Hooker Center","city":"Guiniculalay","zip_code":"2017"},
{"id":83,"street":"5 Anzinger Circle","city":"Old Kilcullen","zip_code":"R56"},
{"id":84,"street":"18 Fair Oaks Trail","city":"Daja"},
{"id":85,"street":"23 Magdeline Circle","city":"Walnut Grove","state":"British Columbia","zip_code":"V2X"},
{"id":86,"street":"3 Charing Cross Parkway","city":"Saramech"},
{"id":87,"street":"4608 Division Place","city":"Tais"},
{"id":88,"street":"14149 Ridgeview Court","city":"Chachoengsao","zip_code":"30330"},
{"id":89,"street":"94 Blackbird Junction","city":"Káto Dhiminió"},
{"id":90,"street":"9 Darwin Place","city":"Roma","state":"Lazio","zip_code":"00141"},
{"id":91,"street":"80 Schiller Center","city":"Hejiayan"},
{"id":92,"street":"4 Manley Lane","city":"Peabiru","zip_code":"87250-000"},
{"id":93,"street":"4 Memorial Park","city":"Bořitov","zip_code":"679 21"},
{"id":94,"street":"216 Mayer Hill","city":"Czerniewice","zip_code":"97-216"},
{"id":95,"street":"148 Killdeer Court","city":"Zhulebino","zip_code":"140074"},
{"id":96,"street":"0943 Mendota Plaza","city":"Kinlough","zip_code":"F94"},
{"id":97,"street":"3613 Anniversary Avenue","city":"Mao’er"},
{"id":98,"street":"809 Forest Run Way","city":"Imaichi","zip_code":"999-1413"},
{"id":99,"street":"97563 Shasta Drive","city":"Barrio San Luis","zip_code":"110221"},
{"id":100,"street":"323 Basil Drive","city":"Reforma","state":"Chihuahua","zip_code":"32600"}]